OBJECT_NAME,OBJECT_ID,EPOCH,MEAN_MOTION,ECCENTRICITY,INCLINATION,RA_OF_ASC_NODE,ARG_OF_PERICENTER,MEAN_ANOMALY,EPHEMERIS_TYPE,CLASSIFICATION_TYPE,NORAD_CAT_ID,ELEMENT_SET_NO,REV_AT_EPOCH,BSTAR,MEAN_MOTION_DOT,MEAN_MOTION_DDOT
MERIDIAN 10,2022-030A,2026-06-07T23:56:57.926688,2.00614716,.6781215,62.6779,141.7830,272.8605,17.6766,0,U,52145,999,3084,0,.245E-5,0
OMNI-L1,2022-033A,2026-06-08T11:21:41.898240,14.82717707,.0004122,97.8390,238.8201,325.8343,34.2605,0,U,52157,999,22616,.25421E-3,.2E-4,0
ENMAP,2022-033C,2026-06-08T11:34:19.634016,14.74982076,.000141,97.9787,241.8554,83.0886,277.0484,0,U,52159,999,22537,.10833E-3,.678E-5,0
ARCSAT-1,2022-033E,2026-06-08T11:51:44.519328,15.53408213,.0004076,97.2745,251.6396,212.8833,147.2168,0,U,52161,999,23435,.19066E-3,.11971E-3,0
GLOBAL-18,2022-034B,2026-06-07T16:30:29.007936,15.45867840,.00033002,52.9826,302.0267,226.9821,133.0909,0,U,52196,999,23549,.50294344E-3,.24471E-3,0
GAOFEN-3 03,2022-035A,2026-06-08T11:42:46.448640,14.42214459,.0001112,98.4067,168.1948,95.6229,264.5087,0,U,52200,999,21959,.56252E-4,.142E-5,0
DAQI-1,2022-039A,2026-06-08T11:54:43.718976,14.57672484,.000247,98.1481,98.5280,297.7836,62.3113,0,U,52257,999,22067,.80042E-4,.32E-5,0
BRO-6,2022-047AE,2026-06-08T11:43:14.327328,15.49952049,.0005658,97.3394,250.3808,106.5712,253.6162,0,U,52422,999,22980,.57407E-3,.32125E-3,0
JILIN-1 GAOFEN 3D27,2022-048B,2026-06-08T12:15:50.025024,15.73384833,.0002105,97.5696,272.6746,89.8876,270.2628,0,U,52444,999,22811,.8112E-3,.113368E-2,0
JILIN-1 GAOFEN 3D28,2022-048C,2026-06-08T08:03:27.247392,15.76067029,.0001622,97.5634,272.6001,145.4654,214.6717,0,U,52445,999,22813,.72374E-3,.113517E-2,0
VIGORIDE-3,2022-057AE,2026-06-08T08:54:59.537088,15.27187054,.0009106,97.6596,299.1143,147.9132,212.2662,0,U,52760,999,22381,.19823E-3,.521E-4,0
ION SCV-006,2022-057AF,2026-06-08T08:35:13.180416,15.45070703,.0018186,97.6093,307.5588,143.4306,216.8187,0,U,52761,999,22475,.24404E-3,.11511E-3,0
SHERPA-AC1,2022-057AH,2026-06-08T09:41:13.522272,15.36141330,.0008846,97.6677,308.2657,119.8992,240.3131,0,U,52763,999,22435,.19535E-3,.6799E-4,0
OMNI-L2,2022-057AR,2026-06-08T09:48:53.724096,14.81348131,.0006593,97.4718,222.3572,7.6380,352.4933,0,U,52771,999,21909,.19485E-3,.1475E-4,0
STEP CUBE LAB-II,2022-065D,2026-06-08T12:28:57.792576,14.63290651,.0009785,98.2222,303.4492,56.8781,303.3358,0,U,52897,999,21023,.19133E-3,.939E-5,0
RANDEV,2022-065E,2026-06-08T12:33:48.673728,14.63677075,.0009108,98.2208,303.8005,57.3279,302.8800,0,U,52898,999,20998,.18505E-3,.915E-5,0
SNUGLITE-II,2022-065F,2026-06-08T08:28:22.215360,14.64331761,.0008493,98.2193,304.2000,57.9459,302.2568,0,U,52899,999,20970,.20337E-3,.1025E-4,0
MIMAN,2022-065G,2026-06-08T08:31:51.129696,14.61834802,.0008682,98.2250,301.8830,59.5244,300.6813,0,U,52900,999,20915,.12986E-3,.601E-5,0
STARLINK-4362,2022-077A,2026-06-08T11:50:05.964576,15.05650750,.0001791,97.3856,338.8300,82.0071,278.1360,0,U,53043,999,21457,-.4823E-5,-.127E-5,0
LARES-2,2022-080A,2026-06-07T07:24:15.159456,6.38965096,.0005412,70.1642,308.7172,333.4127,26.6130,0,U,53105,999,9103,0,-.8E-7,0
GREENCUBE (IO-117),2022-080E,2026-06-01T11:09:37.753056,6.42583280,.00088692,70.1435,303.7143,293.3663,66.6064,0,U,53109,999,9105,0,-.3E-7,0
STARLINK-4410,2022-084R,2026-06-08T10:38:42.757152,15.27153769,.0000989,97.5980,220.3477,69.0262,291.1082,0,U,53204,999,21367,.93842E-3,.24966E-3,0
COSMOS 2558,2022-089A,2026-06-08T12:02:36.246624,15.73407789,.0000673,97.2248,263.2242,186.1835,173.9422,0,U,53323,999,21646,.74919E-3,.104673E-2,0
TECMS,2022-090A,2026-06-08T13:01:41.630880,15.21348125,.0002542,97.3140,227.8962,206.7764,153.3341,0,U,53346,999,21349,.16934E-3,.3726E-4,0
DONGPO 02,2022-098J,2026-06-08T12:43:44.646240,15.72928321,.0001332,97.5510,289.9813,309.2493,50.8652,0,U,53452,999,21343,.68586E-3,.93767E-3,0
DONGPO 01,2022-098K,2026-06-08T12:13:38.817984,15.70927057,.0001213,97.5570,290.5067,238.8217,121.2926,0,U,53453,999,21339,.63344E-3,.79472E-3,0
STARLINK-4400,2022-099D,2026-06-08T08:08:49.135776,15.05639451,.0001068,97.3888,278.7659,188.4833,171.6376,0,U,53468,999,20961,-.66876E-5,-.154E-5,0
STARLINK-4621,2022-105AE,2026-06-08T05:01:24.021120,15.05657076,.0001913,97.3893,38.6489,81.6420,278.5025,0,U,53676,999,20685,-.10484E-4,-.209E-5,0
SHERPA-LTC2,2022-107BG,2026-06-08T13:11:34.944000,14.69603238,.0394817,53.2348,256.8934,201.8291,156.5450,0,U,53754,999,20127,.35656E-3,.7047E-4,0
CENTISPACE-1 S3,2022-108A,2026-06-08T09:13:00.134976,14.61241502,.0008817,53.5327,91.6601,330.1319,29.9152,0,U,53757,999,20024,.13399E-3,.477E-5,0
