MERIDIAN 10             
1 52145U 22030A   26158.99789267  .00000245  00000+0  00000+0 0  9992
2 52145  62.6779 141.7830 6781215 272.8605  17.6766  2.00614716 30845
OMNI-L1                 
1 52157U 22033A   26159.47340160  .00002000  00000+0  25421-3 0  9996
2 52157  97.8390 238.8201 0004122 325.8343  34.2605 14.82717707226160
ENMAP                   
1 52159U 22033C   26159.48217169  .00000678  00000+0  10833-3 0  9991
2 52159  97.9787 241.8554 0001410  83.0886 277.0484 14.74982076225378
ARCSAT-1                
1 52161U 22033E   26159.49426527  .00011971  00000+0  19066-3 0  9990
2 52161  97.2745 251.6396 0004076 212.8833 147.2168 15.53408213234355
GLOBAL-18               
1 52196U 22034B   26158.68783574  .00024471  00000+0  50294-3 0  9994
2 52196  52.9826 302.0267 0003300 226.9821 133.0909 15.45867840235499
GAOFEN-3 03             
1 52200U 22035A   26159.48803760  .00000142  00000+0  56252-4 0  9990
2 52200  98.4067 168.1948 0001112  95.6229 264.5087 14.42214459219594
DAQI-1                  
1 52257U 22039A   26159.49633934  .00000320  00000+0  80042-4 0  9993
2 52257  98.1481  98.5280 0002470 297.7836  62.3113 14.57672484220672
BRO-6                   
1 52422U 22047AE  26159.48836027  .00032125  00000+0  57407-3 0  9999
2 52422  97.3394 250.3808 0005658 106.5712 253.6162 15.49952049229808
JILIN-1 GAOFEN 3D27     
1 52444U 22048B   26159.51099566  .00113368  00000+0  81120-3 0  9995
2 52444  97.5696 272.6746 0002105  89.8876 270.2628 15.73384833228117
JILIN-1 GAOFEN 3D28     
1 52445U 22048C   26159.33573203  .00113517  00000+0  72374-3 0  9998
2 52445  97.5634 272.6001 0001622 145.4654 214.6717 15.76067029228131
VIGORIDE-3              
1 52760U 22057AE  26159.37152242  .00005210  00000+0  19823-3 0  9998
2 52760  97.6596 299.1143 0009106 147.9132 212.2662 15.27187054223813
ION SCV-006             
1 52761U 22057AF  26159.35779144  .00011511  00000+0  24404-3 0  9995
2 52761  97.6093 307.5588 0018186 143.4306 216.8187 15.45070703224753
SHERPA-AC1              
1 52763U 22057AH  26159.40362873  .00006799  00000+0  19535-3 0  9991
2 52763  97.6677 308.2657 0008846 119.8992 240.3131 15.36141330224350
OMNI-L2                 
1 52771U 22057AR  26159.40895514  .00001475  00000+0  19485-3 0  9993
2 52771  97.4718 222.3572 0006593   7.6380 352.4933 14.81348131219094
STEP CUBE LAB-II        
1 52897U 22065D   26159.52011334  .00000939  00000+0  19133-3 0  9998
2 52897  98.2222 303.4492 0009785  56.8781 303.3358 14.63290651210237
RANDEV                  
1 52898U 22065E   26159.52348002  .00000915  00000+0  18505-3 0  9990
2 52898  98.2208 303.8005 0009108  57.3279 302.8800 14.63677075209988
SNUGLITE-II             
1 52899U 22065F   26159.35303490  .00001025  00000+0  20337-3 0  9993
2 52899  98.2193 304.2000 0008493  57.9459 302.2568 14.64331761209709
MIMAN                   
1 52900U 22065G   26159.35545289  .00000601  00000+0  12986-3 0  9990
2 52900  98.2250 301.8830 0008682  59.5244 300.6813 14.61834802209155
STARLINK-4362           
1 53043U 22077A   26159.49312459 -.00000127  00000+0 -48230-5 0  9996
2 53043  97.3856 338.8300 0001791  82.0071 278.1360 15.05650750214576
LARES-2                 
1 53105U 22080A   26158.30850879 -.00000008  00000+0  00000+0 0  9995
2 53105  70.1642 308.7172 0005412 333.4127  26.6130  6.38965096 91032
GREENCUBE (IO-117)      
1 53109U 22080E   26152.46502029 -.00000003  00000+0  00000+0 0  9996
2 53109  70.1435 303.7143 0008869 293.3663  66.6064  6.42583280 91055
STARLINK-4410           
1 53204U 22084R   26159.44355043  .00024966  00000+0  93842-3 0  9996
2 53204  97.5980 220.3477 0000989  69.0262 291.1082 15.27153769213678
COSMOS 2558             
1 53323U 22089A   26159.50180841  .00104673  00000+0  74919-3 0  9990
2 53323  97.2248 263.2242 0000673 186.1835 173.9422 15.73407789216467
TECMS                   
1 53346U 22090A   26159.54284295  .00003726  00000+0  16934-3 0  9999
2 53346  97.3140 227.8962 0002542 206.7764 153.3341 15.21348125213499
DONGPO 02               
1 53452U 22098J   26159.53037785  .00093767  00000+0  68586-3 0  9998
2 53452  97.5510 289.9813 0001332 309.2493  50.8652 15.72928321213436
DONGPO 01               
1 53453U 22098K   26159.50947706  .00079472  00000+0  63344-3 0  9993
2 53453  97.5570 290.5067 0001213 238.8217 121.2926 15.70927057213396
STARLINK-4400           
1 53468U 22099D   26159.33945759 -.00000154  00000+0 -66876-5 0  9995
2 53468  97.3888 278.7659 0001068 188.4833 171.6376 15.05639451209613
STARLINK-4621           
1 53676U 22105AE  26159.20930580 -.00000209  00000+0 -10484-4 0  9990
2 53676  97.3893  38.6489 0001913  81.6420 278.5025 15.05657076206853
SHERPA-LTC2             
1 53754U 22107BG  26159.54971000  .00007047  00000+0  35656-3 0  9990
2 53754  53.2348 256.8934 0394817 201.8291 156.5450 14.69603238201273
CENTISPACE-1 S3         
1 53757U 22108A   26159.38402934  .00000477  00000+0  13399-3 0  9991
2 53757  53.5327  91.6601 0008817 330.1319  29.9152 14.61241502200243
